[{"OBJECT_NAME":"QIANFAN-54","OBJECT_ID":"2024-232U","EPOCH":"2026-03-09T22:08:58.177248","MEAN_MOTION":13.5100364,"ECCENTRICITY":0.00028257,"INCLINATION":89.006,"RA_OF_ASC_NODE":32.0905,"ARG_OF_PERICENTER":33.2019,"MEAN_ANOMALY":326.9309,"EPHEMERIS_TYPE":0,"CLASSIFICATION_TYPE":"U","NORAD_CAT_ID":62255,"ELEMENT_SET_NO":999,"REV_AT_EPOCH":11118,"BSTAR":0.00014876579,"MEAN_MOTION_DOT":1.08e-6,"MEAN_MOTION_DDOT":0},{"OBJECT_NAME":"CZ-6A DEB","OBJECT_ID":"2024-140AC","EPOCH":"2026-03-09T20:41:45.083040","MEAN_MOTION":13.25507823,"ECCENTRICITY":0.05429756,"INCLINATION":88.049,"RA_OF_ASC_NODE":240.2476,"ARG_OF_PERICENTER":36.2798,"MEAN_ANOMALY":327.3903,"EPHEMERIS_TYPE":0,"CLASSIFICATION_TYPE":"U","NORAD_CAT_ID":60627,"ELEMENT_SET_NO":999,"REV_AT_EPOCH":7668,"BSTAR":0.0001830396,"MEAN_MOTION_DOT":1.93e-6,"MEAN_MOTION_DDOT":0}]
